[
  {
    "name": "KUIPER-00230",
    "noradId": "68579",
    "line1": "1 68579U 26072G   26177.15608075  .00031352  00000+0  82855-3 0  9991",
    "line2": "2 68579  51.8741 133.3068 0003424  51.8517 308.2778 15.38147164 12768"
  },
  {
    "name": "KUIPER-00231",
    "noradId": "68580",
    "line1": "1 68580U 26072H   26177.49131851 -.00100589  00000+0 -33807-2 0  9996",
    "line2": "2 68580  51.8745 131.7746 0005723  42.8839 317.2590 15.30615859 12811"
  },
  {
    "name": "KUIPER-00234",
    "noradId": "68581",
    "line1": "1 68581U 26072J   26177.64188582  .00001837  00000+0  29142-3 0  9999",
    "line2": "2 68581  51.8973 148.3930 0000886 198.1911 161.9018 14.76550897 12598"
  },
  {
    "name": "KUIPER-00236",
    "noradId": "68582",
    "line1": "1 68582U 26072K   26177.17191506  .00022624  00000+0  60982-3 0  9992",
    "line2": "2 68582  51.8738 133.4144 0003761  50.1056 310.0261 15.37719446 12763"
  },
  {
    "name": "KUIPER-00244",
    "noradId": "68583",
    "line1": "1 68583U 26072L   26177.75001156  .00109078  00000+0  14733-1 0  9998",
    "line2": "2 68583  51.8982 138.3581 0001487 122.3900 358.0142 14.78095224  4673"
  },
  {
    "name": "KUIPER-00253",
    "noradId": "68584",
    "line1": "1 68584U 26072M   26177.59119737  .00007253  00000+0  97811-3 0  9998",
    "line2": "2 68584  51.9014 141.5747 0000724  73.6425 286.4616 14.79989204 12685"
  },
  {
    "name": "KUIPER-00254",
    "noradId": "68585",
    "line1": "1 68585U 26072N   26177.62223641  .00003047  00000+0  42851-3 0  9994",
    "line2": "2 68585  51.9014 143.9366 0001990  59.7151 300.4008 14.79942783 12656"
  },
  {
    "name": "KUIPER-00263",
    "noradId": "68586",
    "line1": "1 68586U 26072P   26177.75001156 -.00712426  00000+0 -39144-1 0  9993",
    "line2": "2 68586  51.8876 131.1785 0003232  76.9875 279.9160 15.16110761  2744"
  },
  {
    "name": "KUIPER-00269",
    "noradId": "68587",
    "line1": "1 68587U 26072Q   26177.75001156 -.00975764  00000+0 -66550-1 0  9991",
    "line2": "2 68587  51.8987 132.1972 0004381  61.3438 215.9542 15.08826093  5825"
  },
  {
    "name": "KUIPER-00272",
    "noradId": "68588",
    "line1": "1 68588U 26072R   26177.64783417  .00000772  00000+0  13030-3 0  9990",
    "line2": "2 68588  51.8956 151.3046 0001097  63.5004 296.6071 14.79938081 12550"
  },
  {
    "name": "KUIPER-00285",
    "noradId": "68589",
    "line1": "1 68589U 26072S   26177.75001156 -.00738692  00000+0 -52319-1 0  9998",
    "line2": "2 68589  51.8895 132.2986 0007975  54.6478  82.5091 15.07078926  2751"
  },
  {
    "name": "KUIPER-00286",
    "noradId": "68590",
    "line1": "1 68590U 26072T   26177.75001156  .00036530  00000+0  15090-2 0  9996",
    "line2": "2 68590  51.8799 130.9617 0005682  39.5076 113.1077 15.23651298  5262"
  },
  {
    "name": "KUIPER-00289",
    "noradId": "68591",
    "line1": "1 68591U 26072U   26177.75001156  .00016631  00000+0  19164-2 0  9993",
    "line2": "2 68591  51.8981 135.9960 0016103  76.4576 322.9006 14.85699376  3915"
  },
  {
    "name": "KUIPER-00290",
    "noradId": "68592",
    "line1": "1 68592U 26072V   26177.70091439 -.00378172  00000+0 -30296-1 0  9993",
    "line2": "2 68592  51.8876 135.3485 0012605  73.0188 287.2164 15.01632980 12780"
  },
  {
    "name": "KUIPER-00293",
    "noradId": "68593",
    "line1": "1 68593U 26072W   26177.65321516  .00002911  00000+0  41075-3 0  9992",
    "line2": "2 68593  51.8952 146.2816 0003081  81.1557 278.9754 14.79929549 12622"
  },
  {
    "name": "KUIPER-00294",
    "noradId": "68594",
    "line1": "1 68594U 26072X   26177.75001156 -.00010391  00000+0 -84661-3 0  9990",
    "line2": "2 68594  51.8894 134.0334 0010098  50.6266  38.2349 14.98099138  5400"
  },
  {
    "name": "KUIPER-00296",
    "noradId": "68595",
    "line1": "1 68595U 26072Y   26177.57152623  .00026232  00000+0  68799-3 0  9990",
    "line2": "2 68595  51.8675 131.5466 0010019  56.6766 303.5179 15.38436392 12825"
  },
  {
    "name": "KUIPER-00297",
    "noradId": "68596",
    "line1": "1 68596U 26072Z   26177.21380344  .00002107  00000+0  33156-3 0  9999",
    "line2": "2 68596  51.8977 147.5115 0001170 105.3243 254.7847 14.76321408 12572"
  },
  {
    "name": "KUIPER-00300",
    "noradId": "68597",
    "line1": "1 68597U 26072AA  26177.61329725  .00001948  00000+0  30802-3 0  9997",
    "line2": "2 68597  51.9013 142.8239 0001794  91.3908 268.7259 14.76436829 12671"
  },
  {
    "name": "KUIPER-00301",
    "noradId": "68598",
    "line1": "1 68598U 26072AB  26177.57349653  .00016093  00000+0  42690-3 0  9990",
    "line2": "2 68598  51.8621 131.5207 0010714  59.5036 300.7007 15.38412938 12825"
  },
  {
    "name": "KUIPER-00304",
    "noradId": "68599",
    "line1": "1 68599U 26072AC  26177.58504177  .00030651  00000+0  80802-3 0  9999",
    "line2": "2 68599  51.8649 131.6056 0010064  55.5667 304.6270 15.38194325 12825"
  },
  {
    "name": "KUIPER-00317",
    "noradId": "68600",
    "line1": "1 68600U 26072AD  26177.75001156 -.00017010  00000+0 -14781-2 0  9998",
    "line2": "2 68600  51.8919 133.9216 0013064  65.5463 315.5256 14.96013370  3311"
  },
  {
    "name": "KUIPER-00320",
    "noradId": "68601",
    "line1": "1 68601U 26072AE  26177.75001156  .00034871  00000+0  46251-2 0  9998",
    "line2": "2 68601  51.9013 138.3525 0000645 176.7304 120.6021 14.79514888  5385"
  },
  {
    "name": "KUIPER-00299",
    "noradId": "68864",
    "line1": "1 68864U 26095A   26177.33713795  .00001553  00000+0  25174-3 0  9990",
    "line2": "2 68864  51.8977 208.3097 0002158 192.2530 167.8378 14.76446596  8996"
  },
  {
    "name": "KUIPER-00353",
    "noradId": "68865",
    "line1": "1 68865U 26095B   26177.75001156 -.02039532  00000+0 -90383-1 0  9992",
    "line2": "2 68865  51.8884 196.3504 0002897   6.0145 150.3347 15.24625080  5011"
  },
  {
    "name": "KUIPER-00357",
    "noradId": "68866",
    "line1": "1 68866U 26095C   26177.75001156 -.00069282  00000+0 -80453-2 0  9994",
    "line2": "2 68866  51.8990 200.9649 0003682  23.7121  36.9269 14.85269641  3434"
  },
  {
    "name": "KUIPER-00364",
    "noradId": "68867",
    "line1": "1 68867U 26095D   26177.75001156 -.00035106  00000+0 -49608-2 0  9990",
    "line2": "2 68867  51.9016 203.3259 0001967 132.0864 200.4335 14.76745954  3428"
  },
  {
    "name": "KUIPER-00375",
    "noradId": "68868",
    "line1": "1 68868U 26095E   26177.75001156 -.01232347  00000+0 -77601-1 0  9991",
    "line2": "2 68868  51.8965 197.1455 0002378  18.0148 115.7517 15.11937480  5489"
  },
  {
    "name": "KUIPER-00433",
    "noradId": "68869",
    "line1": "1 68869U 26095F   26177.51583344  .00001954  00000+0  28552-3 0  9998",
    "line2": "2 68869  51.8984 211.9070 0000686  77.3254 282.7785 14.79894026  8964"
  },
  {
    "name": "KUIPER-00437",
    "noradId": "68870",
    "line1": "1 68870U 26095G   26177.31923108  .00032545  00000+0  85884-3 0  9995",
    "line2": "2 68870  51.8768 198.2619 0008210 346.6579  13.4190 15.38148041  9139"
  },
  {
    "name": "KUIPER-00448",
    "noradId": "68871",
    "line1": "1 68871U 26095H   26177.75001156 -.00100701  00000+0 -92553-2 0  9996",
    "line2": "2 68871  51.8948 199.2801 0003978  69.2206 336.6978 14.94855998  5446"
  },
  {
    "name": "KUIPER-00459",
    "noradId": "68872",
    "line1": "1 68872U 26095J   26177.32663652  .00025152  00000+0  74040-3 0  9991",
    "line2": "2 68872  51.8692 198.9970 0010375 346.0287  14.0410 15.34860382  9125"
  },
  {
    "name": "KUIPER-00468",
    "noradId": "68873",
    "line1": "1 68873U 26095K   26177.30665620  .00030291  00000+0  80886-3 0  9992",
    "line2": "2 68873  51.8798 198.1930 0004583 330.5868  29.4860 15.37840553  9139"
  },
  {
    "name": "KUIPER-00476",
    "noradId": "68874",
    "line1": "1 68874U 26095L   26177.63579543  .00017181  00000+0  50748-3 0  9994",
    "line2": "2 68874  51.8724 197.3387 0010365 352.7084   7.3749 15.35007223  9179"
  },
  {
    "name": "KUIPER-00478",
    "noradId": "68875",
    "line1": "1 68875U 26095M   26177.59059270 -.00317977  00000+0 -96359-2 0  9995",
    "line2": "2 68875  51.8766 197.0701 0009770 350.2237   9.8557 15.34836199  9179"
  },
  {
    "name": "KUIPER-00480",
    "noradId": "68876",
    "line1": "1 68876U 26095N   26177.31166786  .00027636  00000+0  72838-3 0  9992",
    "line2": "2 68876  51.8733 198.2013 0005713 332.1635  27.9046 15.38288421  9130"
  },
  {
    "name": "KUIPER-00482",
    "noradId": "68877",
    "line1": "1 68877U 26095P   26177.75001156 -.00093476  00000+0 -75122-2 0  9995",
    "line2": "2 68877  51.8944 198.4893 0002180   5.6287 195.6995 15.00000731  1350"
  },
  {
    "name": "KUIPER-00483",
    "noradId": "68878",
    "line1": "1 68878U 26095Q   26177.34953017  .00001574  00000+0  25380-3 0  9991",
    "line2": "2 68878  51.8968 211.9545 0001845 170.3292 189.7705 14.76621608  8944"
  },
  {
    "name": "KUIPER-00488",
    "noradId": "68879",
    "line1": "1 68879U 26095R   26177.75001156 -.01866340  00000+0 -78945-1 0  9991",
    "line2": "2 68879  51.8725 197.0828 0012079   1.8796  86.9260 15.26301424  5434"
  },
  {
    "name": "KUIPER-00489",
    "noradId": "68880",
    "line1": "1 68880U 26095S   26177.31219439  .00023307  00000+0  68807-3 0  9993",
    "line2": "2 68880  51.8735 198.9271 0010020 343.3572  16.7083 15.34819316  9126"
  },
  {
    "name": "KUIPER-00499",
    "noradId": "68881",
    "line1": "1 68881U 26095T   26177.26815220  .00018593  00000+0  56171-3 0  9990",
    "line2": "2 68881  51.8675 199.3462 0007236 343.8382  16.2372 15.34259624  9111"
  },
  {
    "name": "KUIPER-00500",
    "noradId": "68882",
    "line1": "1 68882U 26095U   26177.34943191  .00002367  00000+0  33943-3 0  9993",
    "line2": "2 68882  51.8991 210.1397 0001067 286.0487  74.0357 14.79931284  8977"
  },
  {
    "name": "KUIPER-00502",
    "noradId": "68883",
    "line1": "1 68883U 26095V   26177.30476419  .00027848  00000+0  73473-3 0  9997",
    "line2": "2 68883  51.8778 198.1711 0006766 340.6760  19.3970 15.38246146  9132"
  }
]